[{"OBJECT_NAME":"STARLINK-5528","OBJECT_ID":"2023-083Q","EPOCH":"2026-03-09T10:27:38.287584","MEAN_MOTION":15.02541661,"ECCENTRICITY":9.055e-5,"INCLINATION":43.0025,"RA_OF_ASC_NODE":83.0319,"ARG_OF_PERICENTER":297.633,"MEAN_ANOMALY":62.442,"EPHEMERIS_TYPE":0,"CLASSIFICATION_TYPE":"U","NORAD_CAT_ID":56890,"ELEMENT_SET_NO":999,"REV_AT_EPOCH":15163,"BSTAR":-8.8718872e-5,"MEAN_MOTION_DOT":-1.402e-5,"MEAN_MOTION_DDOT":0},{"OBJECT_NAME":"UNKNOWN","OBJECT_ID":"","EPOCH":"2026-03-08T11:45:51.038784","MEAN_MOTION":14.85715368,"ECCENTRICITY":0.0087365,"INCLINATION":97.6779,"RA_OF_ASC_NODE":256.4518,"ARG_OF_PERICENTER":23.5839,"MEAN_ANOMALY":6.4538,"EPHEMERIS_TYPE":0,"CLASSIFICATION_TYPE":"U","NORAD_CAT_ID":81845,"ELEMENT_SET_NO":999,"REV_AT_EPOCH":66225,"BSTAR":0.00036382,"MEAN_MOTION_DOT":3.326e-5,"MEAN_MOTION_DDOT":0}]
